{
  "type": "FeatureCollection",
  "features": [
    {
      "type": "Feature",
      "properties": {
        "norad_id": 33986,
        "name": "COSMOS 2251 DEB",
        "group": "cosmos-2251-debris",
        "lat": -51.8255953664653,
        "lon": -60.96404585139304,
        "alt_km": 754.8355448213133,
        "timestamp": "2025-12-03T04:52:30.031876+00:00",
        "meta_object_name": "COSMOS 2251 DEB",
        "meta_object_id": "1993-036FV",
        "meta_epoch": "2025-12-01T23:16:51.627936",
        "meta_mean_motion": 14.4311158,
        "meta_eccentricity": 0.00398909,
        "meta_inclination": 74.0364,
        "meta_ra_of_asc_node": 322.6763,
        "meta_arg_of_pericenter": 38.0925,
        "meta_mean_anomaly": 344.0411,
        "meta_ephemeris_type": 0,
        "meta_classification_type": "U",
        "meta_norad_cat_id": 33986,
        "meta_element_set_no": 999,
        "meta_rev_at_epoch": 87873,
        "meta_bstar": 0.00087999302,
        "meta_mean_motion_dot": 2.956e-05,
        "meta_mean_motion_ddot": 0,
        "tle_line1": "1 33986U 93036FV  25335.97004199  .00002956  00000+0  87999-3 0  9993",
        "tle_line2": "2 33986  74.0364 322.6763 0039890  38.0925 344.0411 14.43111580878738"
      },
      "geometry": {
        "type": "Point",
        "coordinates": [
          -60.96404585139304,
          -51.8255953664653
        ]
      }
    },
    {
      "type": "Feature",
      "properties": {
        "norad_id": 33990,
        "name": "COSMOS 2251 DEB",
        "group": "cosmos-2251-debris",
        "lat": -45.21406413928387,
        "lon": -75.57932950897943,
        "alt_km": 780.0952996150963,
        "timestamp": "2025-12-03T04:52:30.031886+00:00",
        "meta_object_name": "COSMOS 2251 DEB",
        "meta_object_id": "1993-036FZ",
        "meta_epoch": "2025-12-02T08:31:04.816704",
        "meta_mean_motion": 13.49939909,
        "meta_eccentricity": 0.04075924,
        "meta_inclination": 73.9275,
        "meta_ra_of_asc_node": 302.6666,
        "meta_arg_of_pericenter": 324.8412,
        "meta_mean_anomaly": 187.8817,
        "meta_ephemeris_type": 0,
        "meta_classification_type": "U",
        "meta_norad_cat_id": 33990,
        "meta_element_set_no": 999,
        "meta_rev_at_epoch": 82589,
        "meta_bstar": 0.0018672712,
        "meta_mean_motion_dot": 1.965e-05,
        "meta_mean_motion_ddot": 0,
        "tle_line1": "1 33990U 93036FZ  25336.35491686  .00001965  00000+0  18673-2 0  9993",
        "tle_line2": "2 33990  73.9275 302.6666 0407592 324.8412 187.8817 13.49939909825897"
      },
      "geometry": {
        "type": "Point",
        "coordinates": [
          -75.57932950897943,
          -45.21406413928387
        ]
      }
    },
    {
      "type": "Feature",
      "properties": {
        "norad_id": 33992,
        "name": "COSMOS 2251 DEB",
        "group": "cosmos-2251-debris",
        "lat": 73.86855061478737,
        "lon": 94.03970490099864,
        "alt_km": 632.9858760992865,
        "timestamp": "2025-12-03T04:52:30.031897+00:00",
        "meta_object_name": "COSMOS 2251 DEB",
        "meta_object_id": "1993-036GB",
        "meta_epoch": "2025-12-02T19:25:43.256352",
        "meta_mean_motion": 14.66088359,
        "meta_eccentricity": 0.005178,
        "meta_inclination": 74.0242,
        "meta_ra_of_asc_node": 356.8893,
        "meta_arg_of_pericenter": 117.9072,
        "meta_mean_anomaly": 58.0114,
        "meta_ephemeris_type": 0,
        "meta_classification_type": "U",
        "meta_norad_cat_id": 33992,
        "meta_element_set_no": 999,
        "meta_rev_at_epoch": 88979,
        "meta_bstar": 0.00088869,
        "meta_mean_motion_dot": 4.949e-05,
        "meta_mean_motion_ddot": 0,
        "tle_line1": "1 33992U 93036GB  25336.80952843  .00004949  00000+0  88869-3 0  9992",
        "tle_line2": "2 33992  74.0242 356.8893 0051780 117.9072  58.0114 14.66088359889797"
      },
      "geometry": {
        "type": "Point",
        "coordinates": [
          94.03970490099864,
          73.86855061478737
        ]
      }
    },
    {
      "type": "Feature",
      "properties": {
        "norad_id": 33994,
        "name": "COSMOS 2251 DEB",
        "group": "cosmos-2251-debris",
        "lat": 37.36589574349558,
        "lon": 15.436560359273537,
        "alt_km": 766.6920405214669,
        "timestamp": "2025-12-03T04:52:30.031913+00:00",
        "meta_object_name": "COSMOS 2251 DEB",
        "meta_object_id": "1993-036GD",
        "meta_epoch": "2025-12-02T18:34:27.848352",
        "meta_mean_motion": 14.41204832,
        "meta_eccentricity": 0.0023272,
        "meta_inclination": 74.0426,
        "meta_ra_of_asc_node": 208.8509,
        "meta_arg_of_pericenter": 345.0749,
        "meta_mean_anomaly": 89.6996,
        "meta_ephemeris_type": 0,
        "meta_classification_type": "U",
        "meta_norad_cat_id": 33994,
        "meta_element_set_no": 999,
        "meta_rev_at_epoch": 88276,
        "meta_bstar": 0.00012552,
        "meta_mean_motion_dot": 3.8e-06,
        "meta_mean_motion_ddot": 0,
        "tle_line1": "1 33994U 93036GD  25336.77393343  .00000380  00000+0  12552-3 0  9995",
        "tle_line2": "2 33994  74.0426 208.8509 0023272 345.0749  89.6996 14.41204832882760"
      },
      "geometry": {
        "type": "Point",
        "coordinates": [
          15.436560359273537,
          37.36589574349558
        ]
      }
    },
    {
      "type": "Feature",
      "properties": {
        "norad_id": 33995,
        "name": "COSMOS 2251 DEB",
        "group": "cosmos-2251-debris",
        "lat": 70.29738987810573,
        "lon": -170.25463445350687,
        "alt_km": 757.7833971594864,
        "timestamp": "2025-12-03T04:52:30.031923+00:00",
        "meta_object_name": "COSMOS 2251 DEB",
        "meta_object_id": "1993-036GE",
        "meta_epoch": "2025-12-02T16:47:42.605088",
        "meta_mean_motion": 14.34678917,
        "meta_eccentricity": 0.0060941,
        "meta_inclination": 74.0598,
        "meta_ra_of_asc_node": 137.7171,
        "meta_arg_of_pericenter": 154.8256,
        "meta_mean_anomaly": 205.589,
        "meta_ephemeris_type": 0,
        "meta_classification_type": "U",
        "meta_norad_cat_id": 33995,
        "meta_element_set_no": 999,
        "meta_rev_at_epoch": 87375,
        "meta_bstar": 0.0013539,
        "meta_mean_motion_dot": 3.889e-05,
        "meta_mean_motion_ddot": 0,
        "tle_line1": "1 33995U 93036GE  25336.69979867  .00003889  00000+0  13539-2 0  9990",
        "tle_line2": "2 33995  74.0598 137.7171 0060941 154.8256 205.5890 14.34678917873751"
      },
      "geometry": {
        "type": "Point",
        "coordinates": [
          -170.25463445350687,
          70.29738987810573
        ]
      }
    },
    {
      "type": "Feature",
      "properties": {
        "norad_id": 33999,
        "name": "COSMOS 2251 DEB",
        "group": "cosmos-2251-debris",
        "lat": 13.236234415609545,
        "lon": -106.31916498159222,
        "alt_km": 642.4132341372697,
        "timestamp": "2025-12-03T04:52:30.031933+00:00",
        "meta_object_name": "COSMOS 2251 DEB",
        "meta_object_id": "1993-036GJ",
        "meta_epoch": "2025-12-02T20:43:02.937216",
        "meta_mean_motion": 14.82990819,
        "meta_eccentricity": 0.0044693,
        "meta_inclination": 73.9201,
        "meta_ra_of_asc_node": 250.4676,
        "meta_arg_of_pericenter": 148.9246,
        "meta_mean_anomaly": 211.459,
        "meta_ephemeris_type": 0,
        "meta_classification_type": "U",
        "meta_norad_cat_id": 33999,
        "meta_element_set_no": 999,
        "meta_rev_at_epoch": 89104,
        "meta_bstar": 0.0018762,
        "meta_mean_motion_dot": 0.00015515,
        "meta_mean_motion_ddot": 0,
        "tle_line1": "1 33999U 93036GJ  25336.86322844  .00015515  00000+0  18762-2 0  9992",
        "tle_line2": "2 33999  73.9201 250.4676 0044693 148.9246 211.4590 14.82990819891042"
      },
      "geometry": {
        "type": "Point",
        "coordinates": [
          -106.31916498159222,
          13.236234415609545
        ]
      }
    },
    {
      "type": "Feature",
      "properties": {
        "norad_id": 34001,
        "name": "COSMOS 2251 DEB",
        "group": "cosmos-2251-debris",
        "lat": 25.75304021271268,
        "lon": 111.18751752943797,
        "alt_km": 775.989491158396,
        "timestamp": "2025-12-03T04:52:30.031944+00:00",
        "meta_object_name": "COSMOS 2251 DEB",
        "meta_object_id": "1993-036GL",
        "meta_epoch": "2025-12-02T08:49:29.293824",
        "meta_mean_motion": 14.37075966,
        "meta_eccentricity": 0.00194842,
        "meta_inclination": 74.0382,
        "meta_ra_of_asc_node": 300.6592,
        "meta_arg_of_pericenter": 24.229,
        "meta_mean_anomaly": 128.3227,
        "meta_ephemeris_type": 0,
        "meta_classification_type": "U",
        "meta_norad_cat_id": 34001,
        "meta_element_set_no": 999,
        "meta_rev_at_epoch": 87997,
        "meta_bstar": 0.00028506449,
        "meta_mean_motion_dot": 8.22e-06,
        "meta_mean_motion_ddot": 0,
        "tle_line1": "1 34001U 93036GL  25336.36770016  .00000822  00000+0  28506-3 0  9993",
        "tle_line2": "2 34001  74.0382 300.6592 0019484  24.2290 128.3227 14.37075966879977"
      },
      "geometry": {
        "type": "Point",
        "coordinates": [
          111.18751752943797,
          25.75304021271268
        ]
      }
    }
  ]
}